LYNK TOWER 5            
1 59121U 24043Z   26068.92489786  .00009048  00000+0  31902-3 0  9994
2 59121  97.5458 204.7305 0010406 234.6422 125.3846 15.29454506111860
STARLINK-33585          
1 62782U 25015AA  26068.93373711  .00047754  00000+0  16125-2 0  9997
2 62782  53.1586 320.9564 0000883  96.1926 263.9176 15.30231460 64241
